NORAD_CAT_ID,OBJECT_NAME,OBJECT_TYPE,EPOCH,MEAN_MOTION,ECCENTRICITY,INCLINATION,RA_OF_ASC_NODE,ARG_OF_PERICENTER,MEAN_ANOMALY,BSTAR,MEAN_MOTION_DOT,MEAN_MOTION_DDOT,TLE_LINE0,TLE_LINE1,TLE_LINE2,SEMIMAJOR_AXIS,PERIOD,APOGEE,PERIGEE,DECAYED
53388.0,STARLINK-4522,PAYLOAD,2024-07-28 12:25:54,15.08844036,0.0001708,53.2154,249.016,90.4452,269.6736,0.00025187,3.723e-05,0.0,0 STARLINK-4522,1 53388U 22097A   24210.51799140  .00003723  00000-0  25187-3 0  9993,2 53388  53.2154 249.0160 0001708  90.4452 269.6736 15.08844036109076,6917.868,95.437,540.915,538.551,0.0
53388.0,STARLINK-4522,PAYLOAD,2024-07-29 12:16:41,15.08840054,0.0001609,53.2148,244.5551,87.9715,272.1461,0.00011461,1.536e-05,0.0,0 STARLINK-4522,1 53388U 22097A   24211.51159355  .00001536  00000-0  11461-3 0  9992,2 53388  53.2148 244.5551 0001609  87.9715 272.1461 15.08840054109223,6917.88,95.438,540.858,538.632,0.0
53388.0,STARLINK-4522,PAYLOAD,2024-07-30 08:56:42,15.08842721,0.0001545,53.2145,240.69,87.253,272.8639,9.6843e-05,1.254e-05,0.0,0 STARLINK-4522,1 53388U 22097A   24212.37271277  .00001254  00000-0  96843-4 0  9990,2 53388  53.2145 240.6900 0001545  87.2530 272.8639 15.08842721110186,6917.872,95.437,540.806,538.668,0.0
53388.0,STARLINK-4522,PAYLOAD,2024-07-30 18:29:00,15.08846807,0.0001506,53.2143,238.9058,86.1434,273.973,0.00014937,2.09e-05,0.0,0 STARLINK-4522,1 53388U 22097A   24212.77015037  .00002090  00000-0  14937-3 0  9996,2 53388  53.2143 238.9058 0001506  86.1434 273.9730 15.08846807109413,6917.86,95.437,540.766,538.683,0.0
53388.0,STARLINK-4522,PAYLOAD,2024-07-31 08:47:30,15.0883097,0.0001585,53.2161,236.2324,94.9342,265.1831,2.5832e-05,1.23e-06,0.0,0 STARLINK-4522,1 53388U 22097A   24213.36632442  .00000123  00000-0  25832-4 0  9999,2 53388  53.2161 236.2324 0001585  94.9342 265.1831 15.08830970110334,6917.908,95.438,540.869,538.677,0.0
53388.0,STARLINK-4522,PAYLOAD,2024-08-01 10:13:40,15.08837137,0.0001613,53.2164,231.4747,98.1892,261.9283,0.00025851,3.828e-05,0.0,0 STARLINK-4522,1 53388U 22097A   24214.42615757  .00003828  00000-0  25851-3 0  9992,2 53388  53.2164 231.4747 0001613  98.1892 261.9283 15.08837137109662,6917.889,95.438,540.87,538.638,0.0
53388.0,STARLINK-4522,PAYLOAD,2024-08-02 05:18:18,15.08835429,0.0001537,53.216,227.9048,91.4024,268.7145,0.00013736,1.899e-05,0.0,0 STARLINK-4522,1 53388U 22097A   24215.22104211  .00001899  00000-0  13736-3 0  9994,2 53388  53.2160 227.9048 0001537  91.4024 268.7145 15.08835429109787,6917.894,95.438,540.823,538.696,0.0
53388.0,STARLINK-4522,PAYLOAD,2024-08-02 10:04:27,15.08838668,0.0001485,53.2155,227.0118,88.2613,271.855,0.00013003,1.782e-05,0.0,0 STARLINK-4522,1 53388U 22097A   24215.41976100  .00001782  00000-0  13003-3 0  9997,2 53388  53.2155 227.0118 0001485  88.2613 271.8550 15.08838668110640,6917.884,95.438,540.777,538.722,0.0
53388.0,STARLINK-4522,PAYLOAD,2024-08-03 05:09:04,15.0885,0.0001569,53.2154,223.4428,86.7975,273.3196,7.5195e-05,9.09e-06,0.0,0 STARLINK-4522,1 53388U 22097A   24216.21463410  .00000909  00000-0  75195-4 0  9992,2 53388  53.2154 223.4428 0001569  86.7975 273.3196 15.08850000109937,6917.85,95.437,540.8,538.629,0.0
53388.0,STARLINK-4522,PAYLOAD,2024-08-03 08:19:50,15.08849461,0.0001421,53.2151,222.8485,91.1719,268.9436,5.5919e-05,6.02e-06,0.0,0 STARLINK-4522,1 53388U 22097A   24216.34711331  .00000602  00000-0  55919-4 0  9996,2 53388  53.2151 222.8485 0001421  91.1719 268.9436 15.08849461110784,6917.851,95.437,540.699,538.733,0.0
53388.0,STARLINK-4522,PAYLOAD,2024-08-03 17:52:09,15.08850723,0.0001422,53.2152,221.0643,91.1222,268.9933,6.0942e-05,6.82e-06,0.0,0 STARLINK-4522,1 53388U 22097A   24216.74455005  .00000682  00000-0  60942-4 0  9993,2 53388  53.2152 221.0643 0001422  91.1222 268.9933 15.08850723110844,6917.848,95.437,540.696,538.729,0.0
53388.0,STARLINK-4522,PAYLOAD,2024-08-04 04:59:51,15.0883798,0.0001427,53.2158,218.9826,93.9868,266.1287,4.8258e-05,4.8e-06,0.0,0 STARLINK-4522,1 53388U 22097A   24217.20823779  .00000480  00000-0  48258-4 0  9994,2 53388  53.2158 218.9826 0001427  93.9868 266.1287 15.08837980110087,6917.887,95.438,540.739,538.764,0.0
53388.0,STARLINK-4522,PAYLOAD,2024-08-04 06:35:14,15.0883976,0.0001436,53.2157,218.6849,95.2628,264.8528,3.4798e-05,2.66e-06,0.0,0 STARLINK-4522,1 53388U 22097A   24217.27447680  .00000266  00000-0  34798-4 0  9990,2 53388  53.2157 218.6849 0001436  95.2628 264.8528 15.08839760110921,6917.881,95.438,540.74,538.753,0.0
53388.0,STARLINK-4522,PAYLOAD,2024-08-04 17:42:56,15.08845043,0.0001587,53.2168,216.6029,101.0926,259.0245,7.1277e-05,8.47e-06,0.0,0 STARLINK-4522,1 53388U 22097A   24217.73815177  .00000847  00000-0  71277-4 0  9999,2 53388  53.2168 216.6029 0001587 101.0926 259.0245 15.08845043110164,6917.865,95.437,540.828,538.632,0.0
53388.0,STARLINK-4522,PAYLOAD,2024-08-05 06:26:01,15.08842207,0.0001562,53.2166,214.2246,97.986,262.131,1.7117e-05,-1.6e-07,0.0,0 STARLINK-4522,1 53388U 22097A   24218.26807361 -.00000016  00000-0  17117-4 0  9996,2 53388  53.2166 214.2246 0001562  97.9860 262.1310 15.08842207110246,6917.874,95.437,540.819,538.658,0.0
53388.0,STARLINK-4522,PAYLOAD,2024-08-06 04:41:26,15.08831801,0.0001517,53.2167,210.0611,97.7692,262.3472,3.6525e-07,-2.82e-06,0.0,0 STARLINK-4522,1 53388U 22097A   24219.19544061 -.00000282  00000-0  36525-6 0  9995,2 53388  53.2167 210.0611 0001517  97.7692 262.3472 15.08831801110382,6917.905,95.438,540.82,538.721,0.0
53388.0,STARLINK-4522,PAYLOAD,2024-08-06 06:16:49,15.08830997,0.0001526,53.2167,209.7636,97.9155,262.201,-8.4579e-06,-4.23e-06,0.0,0 STARLINK-4522,1 53388U 22097A   24219.26168153 -.00000423  00000-0 -84579-5 0  9996,2 53388  53.2167 209.7636 0001526  97.9155 262.2010 15.08830997111226,6917.908,95.438,540.829,538.717,0.0
53388.0,STARLINK-4522,PAYLOAD,2024-08-08 07:33:46,15.08837434,0.0001369,53.2161,200.5464,98.6991,261.4157,0.00012893,1.764e-05,0.0,0 STARLINK-4522,1 53388U 22097A   24221.31511921  .00001764  00000-0  12893-3 0  9995,2 53388  53.2161 200.5464 0001369  98.6991 261.4157 15.08837434111539,6917.888,95.438,540.7,538.806,0.0
53388.0,STARLINK-4522,PAYLOAD,2024-08-09 05:49:08,15.08859603,0.0001389,53.2163,196.3827,98.9992,261.1157,0.00017951,2.572e-05,0.0,0 STARLINK-4522,1 53388U 22097A   24222.24246120  .00002572  00000-0  17951-3 0  9992,2 53388  53.2163 196.3827 0001389  98.9992 261.1157 15.08859603110844,6917.82,95.436,540.646,538.725,0.0
53388.0,STARLINK-4522,PAYLOAD,2024-08-09 07:24:31,15.08864819,0.0001375,53.2162,196.082,83.5076,276.6073,0.00022179,3.246e-05,0.0,0 STARLINK-4522,1 53388U 22097A   24222.30869678  .00003246  00000-0  22179-3 0  9995,2 53388  53.2162 196.0820 0001375  83.5076 276.6073 15.08864819111687,6917.805,95.436,540.621,538.718,0.0
53388.0,STARLINK-4522,PAYLOAD,2024-08-09 15:21:29,15.08837174,0.0001471,53.2162,194.5976,91.9404,268.1757,1.9631e-05,2.4e-07,0.0,0 STARLINK-4522,1 53388U 22097A   24222.63991928  .00000024  00000-0  19631-4 0  9996,2 53388  53.2162 194.5976 0001471  91.9404 268.1757 15.08837174110900,6917.889,95.438,540.772,538.736,0.0
53388.0,STARLINK-4522,PAYLOAD,2024-08-10 04:04:34,15.08826712,0.0001485,53.2152,192.2201,89.9381,270.1782,-0.00019341,-3.364e-05,0.0,0 STARLINK-4522,1 53388U 22097A   24223.16984371 -.00003364  00000-0 -19341-3 0  9998,2 53388  53.2152 192.2201 0001485  89.9381 270.1782 15.08826712110986,6917.921,95.438,540.813,538.759,0.0
53388.0,STARLINK-4522,PAYLOAD,2024-08-11 02:19:57,15.08850555,0.0001575,53.216,188.0534,92.6202,267.497,9.2174e-05,1.18e-05,0.0,0 STARLINK-4522,1 53388U 22097A   24224.09719609  .00001180  00000-0  92174-4 0  9999,2 53388  53.2160 188.0534 0001575  92.6202 267.4970 15.08850555111127,6917.848,95.437,540.803,538.624,0.0
53388.0,STARLINK-4522,PAYLOAD,2024-08-11 21:24:35,15.08862624,0.0002652,53.2147,184.4874,87.1807,272.9488,0.00078852,0.00012291,0.0,0 STARLINK-4522,1 53388U 22097A   24224.89207882  .00012291  00000-0  78852-3 0  9993,2 53388  53.2147 184.4874 0002652  87.1807 272.9488 15.08862624112076,6917.811,95.436,541.511,537.842,0.0
53388.0,STARLINK-4522,PAYLOAD,2024-08-12 03:46:08,15.0884319,0.0001584,53.2148,183.2981,93.1762,266.9411,0.0017361,0.00027453,0.0,0 STARLINK-4522,1 53388U 22097A   24225.15703793  .00027453  00000-0  17361-2 0  9998,2 53388  53.2148 183.2981 0001584  93.1762 266.9411 15.08843190111281,6917.871,95.437,540.831,538.64,0.0
53388.0,STARLINK-4522,PAYLOAD,2024-08-12 14:53:49,15.08894676,0.0001805,53.2161,181.2153,97.8459,262.2738,0.0030522,0.00048697,0.0,0 STARLINK-4522,1 53388U 22097A   24225.62070790  .00048697  00000-0  30522-2 0  9991,2 53388  53.2161 181.2153 0001805  97.8459 262.2738 15.08894676111359,6917.713,95.434,540.827,538.33,0.0
53388.0,STARLINK-4522,PAYLOAD,2024-08-13 03:36:55,15.08803906,0.0001509,53.2147,178.8358,99.3326,260.7837,-0.002061,-0.00032907,0.0,0 STARLINK-4522,1 53388U 22097A   24226.15063757 -.00032907  00000-0 -20610-2 0  9991,2 53388  53.2147 178.8358 0001509  99.3326 260.7837 15.08803906111431,6917.991,95.44,540.9,538.812,0.0
53388.0,STARLINK-4522,PAYLOAD,2024-08-13 06:47:42,15.08771666,0.0001468,53.2155,178.2425,95.8412,264.2747,-0.002517,-0.00040049,0.0,0 STARLINK-4522,1 53388U 22097A   24226.28312594 -.00040049  00000-0 -25170-2 0  9993,2 53388  53.2155 178.2425 0001468  95.8412 264.2747 15.08771666111458,6918.089,95.442,540.97,538.939,0.0
53388.0,STARLINK-4522,PAYLOAD,2024-08-13 21:06:12,15.0879829,0.0001347,53.2143,175.5684,92.7973,267.3173,0.0021038,0.00033314,0.0,0 STARLINK-4522,1 53388U 22097A   24226.87930943  .00033314  00000-0  21038-2 0  9996,2 53388  53.2143 175.5684 0001347  92.7973 267.3173 15.08798290111545,6918.008,95.44,540.805,538.941,0.0
53388.0,STARLINK-4522,PAYLOAD,2024-08-14 13:00:04,15.08849759,0.0001413,53.2145,172.595,98.9805,261.1347,0.0020246,0.00032089,0.0,0 STARLINK-4522,1 53388U 22097A   24227.54171339  .00032089  00000-0  20246-2 0  9995,2 53388  53.2145 172.5950 0001413  98.9805 261.1347 15.08849759112471,6917.851,95.437,540.693,538.738,0.0
